CORVUS BC1              
1 42847U 17042Y   18222.17455856 -.00000061  00000-0 -74113-6 0  9996
2 42847  97.5918 123.1431 0009947  25.2486 334.9217 14.91939513 58419
SILU-1 (SILKROAD 1)     
1 42903U 17021F   18222.83323928  .00021872  00000-0  15084-3 0  9993
2 42903  42.7782 356.6135 0014403 325.1199 160.1364 15.73997594 58532
MIRATA                  
1 43015U 17073C   18222.85255398  .00000872  00000-0  73295-4 0  9998
2 43015  97.7040 151.5784 0259410  93.4898 269.6020 14.78217966 39216
MAKERSAT 0              
1 43016U 17073D   18222.76970466  .00000580  00000-0  50288-4 0  9992
2 43016  97.7069 151.6355 0260733  93.8432 269.2629 14.78205365 39199
ASTERIA                 
1 43020U 98067NH  18222.15275807  .00010604  00000-0  13320-3 0  9992
2 43020  51.6420 103.0337 0002560  31.5250 328.5896 15.60303122 40913
DELLINGR (RBLE)         
1 43021U 98067NJ  18222.84838971  .00004647  00000-0  66979-4 0  9995
2 43021  51.6406 101.6437 0002358  25.7989 334.3120 15.58157458 40991
OSIRIS-3U               
1 43027U 98067NL  18222.78454641  .00024976  00000-0  23361-3 0  9996
2 43027  51.6374  93.6839 0002124  20.1972 339.9108 15.67099859 40974
AEROCUBE 7B             
1 43042U 17071F   18221.88584462  .00001728  00000-0  53997-4 0  9993
2 43042  51.6391 139.8546 0005717  97.9271 262.2362 15.39138738 37877
AEROCUBE 7C             
1 43043U 17071G   18221.88583778  .00001761  00000-0  54824-4 0  9990
2 43043  51.6393 139.8599 0005803  99.8413 260.3226 15.39138510 37846
CHEFSAT                 
1 43044U 17071H   18222.83365003  .00004396  00000-0  11752-3 0  9995
2 43044  51.6400 134.2184 0005819 101.1467 259.0172 15.40206717 38009
ASGARDIA 1              
1 43049U 17071N   18222.31653563  .00002113  00000-0  63475-4 0  9999
2 43049  51.6397 137.4941 0003160 114.4902 245.6412 15.39264991 37905
ISARA                   
1 43050U 17071P   18222.19266698  .00003156  00000-0  87673-4 0  9990
2 43050  51.6392 137.4313 0003149 109.3678 250.7648 15.40022753 37891
FAUNA                   
1 43052U 17071R   18221.84566551  .00002397  00000-0  70322-4 0  9993
2 43052  51.6397 139.6098 0003113 109.9260 250.2060 15.39412200 37831
CORVUS BC3              
1 43118U 18004H   18222.10822529  .00000533  00000-0  26213-4 0  9993
2 43118  97.5292 284.7949 0008965 265.7379  94.2833 15.22327566 31915
MICROMAS-2A             
1 43131U 18004W   18221.91568913  .00001205  00000-0  54353-4 0  9993
2 43131  97.5302 284.7630 0008076 269.6516  90.3795 15.22968862 31899
GOMX4-B                 
1 43196U 18015E   18222.19311086  .00000059  00000-0  54010-5 0  9991
2 43196  97.3504 350.0314 0018116 331.9258  28.1000 15.23704537 28757
GOMX4-A                 
1 43197U 18015F   18222.73402880  .00000307  00000-0  15691-4 0  9992
2 43197  97.3535 350.5684 0018678 331.0671 134.5480 15.23708284 28847
1KUNS-PF                
1 43466U 98067NP  18222.75854181  .00008235  00000-0  12012-3 0  9994
2 43466  51.6400 105.5368 0000621  80.2643 279.8419 15.56630483 14197
UBAKUSAT                
1 43467U 98067NQ  18222.76558560  .00005893  00000-0  88963-4 0  9994
2 43467  51.6404 105.5859 0002199 350.9755   9.1197 15.56307912 14207
BATSU-CS1 (IRAZU)       
1 43468U 98067NR  18221.78548756  .00009315  00000-0  13353-3 0  9995
2 43468  51.6398 110.2878 0000648  92.2997 267.8069 15.56920897114031
ENDUROSAT ONE           
1 43551U 98067NZ  18222.71653054  .00007001  00000-0  10913-3 0  9999
2 43551  51.6432 106.7425 0007638  64.8904 295.2854 15.55066824  4417
EQUISAT                 
1 43552U 98067PA  18222.78082628  .00005953  00000-0  93966-4 0  9994
2 43552  51.6415 106.4224 0007866  63.9652 296.2150 15.55038476  4395
AEROCUBE 12A            
1 43556U 18046C   18222.85314720 -.00000315  00000-0  14970-5 0  9993
2 43556  51.6451 111.3313 0009072  43.9876 316.1813 15.27669860  3876
AEROCUBE 12B            
1 43557U 18046D   18221.87183266 -.00000339  00000-0  62741-6 0  9990
2 43557  51.6425 116.0301 0009775  37.9250 322.2357 15.27669456  3676
